*******************************************************************************
 Revised: July 31, 2013                  Earth                              399
 
 GEOPHYSICAL PROPERTIES (revised Aug 15, 2018):
  Vol. Mean Radius (km)    = 6371.01+-0.02   Mass x10^24 (kg)= 5.97219+-0.0006
  Equ. radius, km          = 6378.137        Mass layers:
  Polar axis, km           = 6356.752          Atmos         = 5.1   x 10^18 kg
  Flattening               = 1/298.257223563   oceans        = 1.4   x 10^21 kg
  Density, g/cm^3          = 5.51              crust         = 2.6   x 10^22 kg
  J2 (IERS 2010)           = 0.00108262545     mantle        = 4.043 x 10^24 kg
  g_p, m/s^2  (polar)      = 9.8321863685      outer core    = 1.835 x 10^24 kg
  g_e, m/s^2  (equatorial) = 9.7803267715      inner core    = 9.675 x 10^22 kg
  g_o, m/s^2               = 9.82022         Fluid core rad  = 3480 km
  GM, km^3/s^2             = 398600.435436   Inner core rad  = 1215 km
  GM 1-sigma, km^3/s^2     =      0.0014     Escape velocity = 11.186 km/s
  Rot. Rate (rad/s)        = 0.00007292115   Surface area:
  Mean sidereal day, hr    = 23.9344695944     land          = 1.48 x 10^8 km
  Mean solar day 2000.0, s = 86400.002         sea           = 3.62 x 10^8 km
  Mean solar day 1820.0, s = 86400.0         Love no., k2    = 0.299
  Moment of inertia        = 0.3308          Atm. pressure   = 1.0 bar
  Mean temperature, K      = 270             Volume, km^3    = 1.08321 x 10^12
  Mean effect. IR temp, K  = 255             Magnetic moment = 0.61 gauss Rp^3
  Geometric albedo         = 0.367           Vis. mag. V(1,0)= -3.86
  Solar Constant (W/m^2)   = 1367.6 (mean), 1414 (perihelion), 1322 (aphelion)
 HELIOCENTRIC ORBIT CHARACTERISTICS:
  Obliquity to orbit, deg  = 23.4392911  Sidereal orb period  = 1.0000174 y
  Orbital speed, km/s      = 29.79       Sidereal orb period  = 365.25636 d
  Mean daily motion, deg/d = 0.9856474   Hill's sphere radius = 234.9       
*******************************************************************************
 
 
*******************************************************************************
Ephemeris / WWW_USER Thu Dec 19 17:06:13 2019 Pasadena, USA      / Horizons    
*******************************************************************************
Target body name: Earth (399)                     {source: DE431mx}
Center body name: Solar System Barycenter (0)     {source: DE431mx}
Center-site name: BODY CENTER
*******************************************************************************
Start time      : A.D. 2005-Dec-19 00:00:00.0000 TDB
Stop  time      : A.D. 2020-Jan-18 00:00:00.0000 TDB
Step-size       : 1440 minutes
*******************************************************************************
Center geodetic : 0.00000000,0.00000000,0.0000000 {E-lon(deg),Lat(deg),Alt(km)}
Center cylindric: 0.00000000,0.00000000,0.0000000 {E-lon(deg),Dxy(km),Dz(km)}
Center radii    : (undefined)                                                  
Output units    : KM-S                                                         
Output type     : GEOMETRIC cartesian states
Output format   : 2 (position and velocity)
Reference frame : ICRF/J2000.0                                                 
Coordinate systm: Ecliptic and Mean Equinox of Reference Epoch                 
*******************************************************************************
            JDTDB,            Calendar Date (TDB),        delta-T,                      X,                      Y,                      Z,                     VX,                     VY,                     VZ,
******************************************************************************************************************************************************************************************************************
$$SOE
2454883.500000000, A.D. 2009-Feb-21 00:00:00.0000,      66.185252, -1.314263214602240E+08,  6.928308751191281E+07, -4.339940529424697E+03, -1.432443613924064E+01, -2.651112752773606E+01, -2.820454138028339E-04,
2454884.500000000, A.D. 2009-Feb-22 00:00:00.0000,      66.185272, -1.326438064969432E+08,  6.698204265002022E+07, -4.367390734892339E+03, -1.385733826538614E+01, -2.675238436870359E+01, -3.454894432497468E-04,
2454885.500000000, A.D. 2009-Feb-23 00:00:00.0000,      66.185291, -1.338207426099528E+08,  6.466052245077812E+07, -4.398226161766797E+03, -1.338583471283817E+01, -2.698506633168128E+01, -3.598462729481611E-04,
2454886.500000000, A.D. 2009-Feb-24 00:00:00.0000,      66.185309, -1.349567575045469E+08,  6.231927483416326E+07, -4.428081083677709E+03, -1.291012255452988E+01, -2.720901076709103E+01, -3.224901782683531E-04,
2454887.500000000, A.D. 2009-Feb-25 00:00:00.0000,      66.185328, -1.360514969121321E+08,  5.995906155476474E+07, -4.452437945727259E+03, -1.243042255067862E+01, -2.742406101879720E+01, -2.326265247507564E-04,
2454888.500000000, A.D. 2009-Feb-26 00:00:00.0000,      66.185345, -1.371046267532982E+08,  5.758065740742785E+07, -4.466809752237052E+03, -1.194698146821724E+01, -2.763007317550678E+01, -9.184427528019512E-05,
2454889.500000000, A.D. 2009-Feb-27 00:00:00.0000,      66.185363, -1.381158353888071E+08,  5.518484877437337E+07, -4.466966355446726E+03, -1.146007164562172E+01, -2.782692436474400E+01,  9.544250779747188E-05,
2454890.500000000, A.D. 2009-Feb-28 00:00:00.0000,      66.185380, -1.390848356911935E+08,  5.277243143771316E+07, -4.449189670380205E+03, -1.096998724583448E+01, -2.801452121295022E+01,  3.217830480810591E-04,
2454891.500000000, A.D. 2009-Mar-01 00:00:00.0000,      66.185396, -1.400113666547199E+08,  5.034420770669749E+07, -4.410534594416618E+03, -1.047703741651402E+01, -2.819280702994287E+01,  5.767747072269458E-04,
2454892.500000000, A.D. 2009-Mar-02 00:00:00.0000,      66.185412, -1.408951943098826E+08,  4.790098301833294E+07, -4.349069663140923E+03, -9.981537202017206E+00, -2.836176669971891E+01,  8.474414347148240E-04,
2454893.500000000, A.D. 2009-Mar-03 00:00:00.0000,      66.185428, -1.417361117920978E+08,  4.544356222947539E+07, -4.264074118811637E+03, -9.483797200394426E+00, -2.852142892371732E+01,  1.118853926639574E-03,
2454894.500000000, A.D. 2009-Mar-04 00:00:00.0000,      66.185443, -1.425339384874566E+08,  4.297274582640211E+07, -4.156172962144017E+03, -8.984112602640423E+00, -2.867186591435312E+01,  1.374938941975046E-03,
2454895.500000000, A.D. 2009-Mar-05 00:00:00.0000,      66.185457, -1.432885182108542E+08,  4.048932626980311E+07, -4.027394470529631E+03, -8.482751749091417E+00, -2.881319052104014E+01,  1.599467449853620E-03,
2454896.500000000, A.D. 2009-Mar-06 00:00:00.0000,      66.185471, -1.439997163751194E+08,  3.799408472005735E+07, -3.881133526008576E+03, -7.979944262610176E+00, -2.894555012483756E+01,  1.777253229672482E-03,
2454897.500000000, A.D. 2009-Mar-07 00:00:00.0000,      66.185485, -1.446674161419961E+08,  3.548778847565082E+07, -3.722001560967416E+03, -7.475869600467771E+00, -2.906911599707142E+01,  1.895574037328984E-03,
2454898.500000000, A.D. 2009-Mar-08 00:00:00.0000,      66.185498, -1.452915136811384E+08,  3.297118956995180E+07, -3.555547362547368E+03, -6.970648385803091E+00, -2.918406704243907E+01,  1.945706470261044E-03,
2454899.500000000, A.D. 2009-Mar-09 00:00:00.0000,      66.185510, -1.458719129310063E+08,  3.044502500095238E+07, -3.387850526649505E+03, -6.464340206062174E+00, -2.929056859282360E+01,  1.924272801129945E-03,
2454900.500000000, A.D. 2009-Mar-10 00:00:00.0000,      66.185522, -1.464085205770656E+08,  2.791001888852347E+07, -3.225022511413321E+03, -5.956951245852537E+00, -2.938874984579198E+01,  1.833956483411114E-03,
2454901.500000000, A.D. 2009-Mar-11 00:00:00.0000,      66.185534, -1.469012421488175E+08,  2.536688642775837E+07, -3.072687520517036E+03, -5.448452292584543E+00, -2.947868592797646E+01,  1.683211615100433E-03,
2454902.500000000, A.D. 2009-Mar-12 00:00:00.0000,      66.185545, -1.473499799992612E+08,  2.281633897908846E+07, -2.935535231993534E+03, -4.938803334664839E+00, -2.956039024629833E+01,  1.484919036871091E-03,
2454903.500000000, A.D. 2009-Mar-13 00:00:00.0000,      66.185555, -1.477546334511039E+08,  2.025908928213683E+07, -2.817022904150188E+03, -4.427977886966664E+00, -2.963381920635222E+01,  1.254364578013423E-03,
2454904.500000000, A.D. 2009-Mar-14 00:00:00.0000,      66.185565, -1.481151007892243E+08,  1.769585581115698E+07, -2.719259258134291E+03, -3.915980543309127E+00, -2.969888656493038E+01,  1.007159726018614E-03,
2454905.500000000, A.D. 2009-Mar-15 00:00:00.0000,      66.185575, -1.484312823512778E+08,  1.512736567793149E+07, -2.643049998627044E+03, -3.402854695173079E+00, -2.975548165959230E+01,  7.576487108025276E-04,
2454906.500000000, A.D. 2009-Mar-16 00:00:00.0000,      66.185584, -1.487030838839363E+08,  1.255435600105165E+07, -2.588049861482345E+03, -2.888681395231865E+00, -2.980348590017270E+01,  5.180483937134994E-04,
2454907.500000000, A.D. 2009-Mar-17 00:00:00.0000,      66.185593, -1.489304195370344E+08,  9.977574054055877E+06, -2.552958570150658E+03, -2.373572759094836E+00, -2.984278423067094E+01,  2.982632788146589E-04,
2454908.500000000, A.D. 2009-Mar-18 00:00:00.0000,      66.185602, -1.491132141872326E+08,  7.397776672519119E+06, -2.535711523523554E+03, -1.857663598433680E+00, -2.987327088660892E+01,  1.061489723426234E-04,
2454909.500000000, A.D. 2009-Mar-19 00:00:00.0000,      66.185610, -1.492514050646585E+08,  4.815729376618147E+06, -2.533637568169506E+03, -1.341103997635491E+00, -2.989485047615982E+01, -5.202824577033027E-05,
2454910.500000000, A.D. 2009-Mar-20 00:00:00.0000,      66.185617, -1.493449428359171E+08,  2.232205542803301E+06, -2.543576024592039E+03, -8.240543079360205E-01, -2.990743605089719E+01, -1.711351165294417E-04,
2454911.500000000, A.D. 2009-Mar-21 00:00:00.0000,      66.185624, -1.493937923808030E+08, -3.520141880273588E+05, -2.561959369249162E+03, -3.066830962898930E-01, -2.991094581897807E+01, -2.468495324805531E-04,
